[{"OBJECT_NAME":"VIGORIDE-3","OBJECT_ID":"2022-057AE","EPOCH":"2026-03-09T22:06:57.048768","MEAN_MOTION":15.2610122,"ECCENTRICITY":0.00097778,"INCLINATION":97.6431,"RA_OF_ASC_NODE":206.4459,"ARG_OF_PERICENTER":111.2279,"MEAN_ANOMALY":249.0004,"EPHEMERIS_TYPE":0,"CLASSIFICATION_TYPE":"U","NORAD_CAT_ID":52760,"ELEMENT_SET_NO":999,"REV_AT_EPOCH":21001,"BSTAR":0.00033325795,"MEAN_MOTION_DOT":8.532e-5,"MEAN_MOTION_DDOT":0},{"OBJECT_NAME":"STARLINK-31471","OBJECT_ID":"2024-076E","EPOCH":"2026-03-09T03:53:44.273472","MEAN_MOTION":15.27566798,"ECCENTRICITY":0.00010168,"INCLINATION":43.0065,"RA_OF_ASC_NODE":11.8378,"ARG_OF_PERICENTER":285.9523,"MEAN_ANOMALY":74.1216,"EPHEMERIS_TYPE":0,"CLASSIFICATION_TYPE":"U","NORAD_CAT_ID":59568,"ELEMENT_SET_NO":999,"REV_AT_EPOCH":10633,"BSTAR":-5.4536425e-5,"MEAN_MOTION_DOT":-1.762e-5,"MEAN_MOTION_DDOT":0}]
